NORAD_CAT_ID,OBJECT_NAME,OBJECT_TYPE,EPOCH,MEAN_MOTION,ECCENTRICITY,INCLINATION,RA_OF_ASC_NODE,ARG_OF_PERICENTER,MEAN_ANOMALY,BSTAR,MEAN_MOTION_DOT,MEAN_MOTION_DDOT,TLE_LINE0,TLE_LINE1,TLE_LINE2,SEMIMAJOR_AXIS,PERIOD,APOGEE,PERIGEE,DECAYED
53745.0,STARLINK-4656,PAYLOAD,2022-11-29 14:00:01,15.08823915,0.0001406,53.2157,233.7649,68.2707,167.6276,0.00035224,5.320000000000001e-05,0.0,0 STARLINK-4656,1 53745U 22107AX  22333.58335648  .00005320  00000-0  35224-3 0  9990,2 53745  53.2157 233.7649 0001406  68.2707 167.6276 15.08823915  1305,6917.93,95.439,540.7669999999998,538.822,0.0
53745.0,STARLINK-4656,PAYLOAD,2022-11-29 22:00:00,15.08830094,0.000147,53.2159,232.2697,64.6291,182.7854,-0.00078625,-0.00012776,0.0,0 STARLINK-4656,1 53745U 22107AX  22333.91667824 -.00012776  00000-0 -78625-3 0  9998,2 53745  53.2159 232.2697 0001470  64.6291 182.7854 15.08830094  1309,6917.911,95.438,540.793,538.759,0.0
53745.0,STARLINK-4656,PAYLOAD,2022-11-30 14:00:01,15.08815983,0.0001379,53.2162,229.2763,69.6405,201.0084,0.0034654,0.0005526,0.0,0 STARLINK-4656,1 53745U 22107AX  22334.58335648  .00055260  00000-0  34654-2 0  9994,2 53745  53.2162 229.2763 0001379  69.6405 201.0084 15.08815983 13384,6917.954000000002,95.439,540.773,538.865,0.0
53745.0,STARLINK-4656,PAYLOAD,2022-11-30 22:00:00,15.08889953,0.0001450999999999,53.2169,227.7834,69.8877,212.2814,-0.0070742,-0.0011129,0.0,0 STARLINK-4656,1 53745U 22107AX  22334.91667824 -.00111290  00000-0 -70742-2 0  9991,2 53745  53.2169 227.7834 0001451  69.8877 212.2814 15.08889953  1301,6917.728,95.434,540.596,538.589,0.0
53745.0,STARLINK-4656,PAYLOAD,2022-12-01 06:00:00,15.08830105,0.0001412,53.216,226.2851,58.7001,235.0692,0.00033041,4.973e-05,0.0,0 STARLINK-4656,1 53745U 22107AX  22335.25001157  .00004973  00000-0  33041-3 0  9999,2 53745  53.2160 226.2851 0001412  58.7001 235.0692 15.08830105 13482,6917.911,95.438,540.752,538.799,0.0
53745.0,STARLINK-4656,PAYLOAD,2022-12-01 14:00:01,15.08817412,0.0001302,53.2162,224.7864,69.0232,236.3494,0.0037125,0.00059257,0.0,0 STARLINK-4656,1 53745U 22107AX  22335.58334491  .00059257  00000-0  37125-2 0  9996,2 53745  53.2162 224.7864 0001302  69.0232 236.3494 15.08817412  1308,6917.949000000001,95.439,540.715,538.914,0.0
53745.0,STARLINK-4656,PAYLOAD,2022-12-01 22:00:00,15.08860719,0.0001429,53.2163,223.2914,64.2115,252.7488,-0.0008093,-0.00013152,0.0,0 STARLINK-4656,1 53745U 22107AX  22335.91667824 -.00013152  00000-0 -80930-3 0  9991,2 53745  53.2163 223.2914 0001429  64.2115 252.7488 15.08860719  1309,6917.816999999999,95.436,540.6709999999998,538.694,0.0
53745.0,STARLINK-4656,PAYLOAD,2022-12-02 14:00:01,15.0879668,0.0001355,53.216,220.2972,71.3276,268.8586,0.0027684,0.00043994,0.0,0 STARLINK-4656,1 53745U 22107AX  22336.58334491  .00043994  00000-0  27684-2 0  9997,2 53745  53.2160 220.2972 0001355  71.3276 268.8586 15.08796680 13699,6918.013000000001,95.44,540.815,538.94,0.0
53745.0,STARLINK-4656,PAYLOAD,2022-12-02 22:00:00,15.08828268,0.0001449,53.2165,218.8038,65.4397,286.3059,-0.0010064,-0.00016264,0.0,0 STARLINK-4656,1 53745U 22107AX  22336.91667824 -.00016264  00000-0 -10064-2 0  9999,2 53745  53.2165 218.8038 0001449  65.4397 286.3059 15.08828268  1305,6917.916,95.438,540.784,538.779,0.0
53745.0,STARLINK-4656,PAYLOAD,2022-12-03 08:00:01,15.08843808,0.0001439,53.2157,216.9315,65.5448,30.6676,-0.0015769,-0.00025299,0.0,0 STARLINK-4656,1 53745U 22107AX  22337.33334491 -.00025299  00000-0 -15769-2 0  9992,2 53745  53.2157 216.9315 0001439  65.5448  30.6676 15.08843808 13800,6917.869000000002,95.437,540.729,538.738,0.0
53745.0,STARLINK-4656,PAYLOAD,2022-12-03 14:00:01,15.08811742,0.0001393,53.2156,215.8083,72.7025,302.2079,0.0032792,0.00052247,0.0,0 STARLINK-4656,1 53745U 22107AX  22337.58334491  .00052247  00000-0  32792-2 0  9995,2 53745  53.2156 215.8083 0001393  72.7025 302.2079 15.08811742  1308,6917.967,95.439,540.795,538.868,0.0
53745.0,STARLINK-4656,PAYLOAD,2022-12-03 22:00:00,15.08847174,0.0001534,53.2156,214.3136,66.4077,320.0854,-0.00086783,-0.00014076,0.0,0 STARLINK-4656,1 53745U 22107AX  22337.91667824 -.00014076  00000-0 -86783-3 0  9991,2 53745  53.2156 214.3136 0001534  66.4077 320.0854 15.08847174 13899,6917.858,95.437,540.785,538.6619999999998,0.0
53745.0,STARLINK-4656,PAYLOAD,2022-12-04 14:00:01,15.08804919,0.0001592,53.2152,211.3192,74.1076,335.5887,0.003023,0.00048105,0.0,0 STARLINK-4656,1 53745U 22107AX  22338.58334491  .00048105  00000-0  30230-2 0  9999,2 53745  53.2152 211.3192 0001592  74.1076 335.5887 15.08804919  1303,6917.988,95.44,540.9540000000002,538.751,0.0
53745.0,STARLINK-4656,PAYLOAD,2022-12-04 22:00:00,15.08837349,0.0001724,53.2152,209.8246,67.9391,353.3304,-0.00062923,-0.00010288,0.0,0 STARLINK-4656,1 53745U 22107AX  22338.91667824 -.00010288  00000-0 -62923-3 0  9993,2 53745  53.2152 209.8246 0001724  67.9391 353.3304 15.08837349  1307,6917.888000000001,95.438,540.946,538.561,0.0
53745.0,STARLINK-4656,PAYLOAD,2022-12-05 06:00:00,15.08856193,0.0001686,53.2151,208.3279,65.5292,7.3259,-0.00093459,-0.00015138,0.0,0 STARLINK-4656,1 53745U 22107AX  22339.25001157 -.00015138  00000-0 -93459-3 0  9999,2 53745  53.2151 208.3279 0001686  65.5292   7.3259 15.08856193 14090,6917.831,95.437,540.862,538.53,0.0
53745.0,STARLINK-4656,PAYLOAD,2022-12-05 14:00:01,15.08844081,0.0001636,53.2152,206.83,73.0111,11.5133,0.00083029,0.00012952,0.0,0 STARLINK-4656,1 53745U 22107AX  22339.58335648  .00012952  00000-0  83029-3 0  9991,2 53745  53.2152 206.8300 0001636  73.0111  11.5133 15.08844081  1309,6917.868,95.437,540.865,538.601,0.0
53745.0,STARLINK-4656,PAYLOAD,2022-12-05 21:34:35,15.08848475,0.0001533,53.2171,205.4133,66.0774,294.0379,0.00012807,1.751e-05,0.0,0 STARLINK-4656,1 53745U 22107AX  22339.89901799  .00001751  00000-0  12807-3 0  9992,2 53745  53.2171 205.4133 0001533  66.0774 294.0379 15.08848475 14194,6917.854,95.437,540.78,538.659,0.0
53745.0,STARLINK-4656,PAYLOAD,2022-12-06 02:20:45,15.0883975,0.0001720999999999,53.2171,204.5214,64.6499,295.4671,2.846e-05,1.65e-06,0.0,0 STARLINK-4656,1 53745U 22107AX  22340.09774614  .00000165  00000-0  28460-4 0  9991,2 53745  53.2171 204.5214 0001721  64.6499 295.4671 15.08839750 14221,6917.880999999999,95.438,540.937,538.556,0.0
53745.0,STARLINK-4656,PAYLOAD,2022-12-06 18:14:37,15.08833426,0.0001598,53.2168,201.5481,67.8348,292.2814,4.2894e-05,3.95e-06,0.0,0 STARLINK-4656,1 53745U 22107AX  22340.76015056  .00000395  00000-0  42894-4 0  9995,2 53745  53.2168 201.5481 0001598  67.8348 292.2814 15.08833426 15106,6917.9,95.438,540.871,538.66,0.0
53745.0,STARLINK-4656,PAYLOAD,2022-12-07 00:36:09,15.08828493,0.0001691,53.2164,200.36,50.9237,309.1906,1.9324e-05,1.9e-07,0.0,0 STARLINK-4656,1 53745U 22107AX  22341.02511512  .00000019  00000-0  19324-4 0  9998,2 53745  53.2164 200.3600 0001691  50.9237 309.1906 15.08828493 14361,6917.916,95.438,540.95,538.611,0.0
53745.0,STARLINK-4656,PAYLOAD,2022-12-07 21:16:10,15.0884116,0.0001494,53.2168,196.4932,66.8756,293.2393,1.9806e-05,2.7e-07,0.0,0 STARLINK-4656,1 53745U 22107AX  22341.88622960  .00000027  00000-0  19806-4 0  9996,2 53745  53.2168 196.4932 0001494  66.8756 293.2393 15.08841160 14494,6917.877,95.437,540.775,538.7080000000002,0.0
53745.0,STARLINK-4656,PAYLOAD,2022-12-09 00:17:43,15.08841123,0.0001492,53.2164,191.4375,63.1683,296.9462,0.00015632,2.201e-05,0.0,0 STARLINK-4656,1 53745U 22107AX  22343.01230349  .00002201  00000-0  15632-3 0  9997,2 53745  53.2164 191.4375 0001492  63.1683 296.9462 15.08841123 14668,6917.877,95.437,540.774,538.71,0.0
53745.0,STARLINK-4656,PAYLOAD,2022-12-09 06:39:15,15.08837676,0.0001366,53.2165,190.2494,74.3707,285.7435,0.00012936,1.771e-05,0.0,0 STARLINK-4656,1 53745U 22107AX  22343.27726733  .00001771  00000-0  12936-3 0  9997,2 53745  53.2165 190.2494 0001366  74.3707 285.7435 15.08837676 15484,6917.887,95.438,540.697,538.808,0.0
53745.0,STARLINK-4656,PAYLOAD,2022-12-09 19:22:21,15.08832578,0.0001250999999999,53.218,187.8802,111.3879,248.7247,-2.1559e-05,-6.31e-06,0.0,0 STARLINK-4656,1 53745U 22107AX  22343.80719536 -.00000631  00000-0 -21559-4 0  9997,2 53745  53.2180 187.8802 0001251 111.3879 248.7247 15.08832578 14789,6917.903,95.438,540.634,538.903,0.0
53745.0,STARLINK-4656,PAYLOAD,2022-12-10 00:08:31,15.08826578,0.0001384,53.2164,186.9774,76.0092,284.1053,6.0721e-05,6.78e-06,0.0,0 STARLINK-4656,1 53745U 22107AX  22344.00591900  .00000678  00000-0  60721-4 0  9996,2 53745  53.2164 186.9774 0001384  76.0092 284.1053 15.08826578 14816,6917.920999999999,95.438,540.744,538.8290000000002,0.0
53745.0,STARLINK-4656,PAYLOAD,2022-12-10 19:13:08,15.08842343,0.0001439,53.2167,183.409,66.7902,293.3241,-5.6625e-05,-1.189e-05,0.0,0 STARLINK-4656,1 53745U 22107AX  22344.80079368 -.00001189  00000-0 -56625-4 0  9991,2 53745  53.2167 183.4090 0001439  66.7902 293.3241 15.08842343 14931,6917.873000000001,95.437,540.734,538.743,0.0
53745.0,STARLINK-4656,PAYLOAD,2022-12-11 14:17:46,15.088415,0.0001545,53.2153,179.8403,64.7598,295.3554,-6.2889e-06,-3.88e-06,0.0,0 STARLINK-4656,1 53745U 22107AX  22345.59567275 -.00000388  00000-0 -62889-5 0  9997,2 53745  53.2153 179.8403 0001545  64.7598 295.3554 15.08841500 15833,6917.876,95.437,540.81,538.672,0.0
53745.0,STARLINK-4656,PAYLOAD,2022-12-11 20:39:18,15.088394,0.0001375999999999,53.2161,178.6511,66.8033,293.3104,0.00023706,3.487e-05,0.0,0 STARLINK-4656,1 53745U 22107AX  22345.86063579  .00003487  00000-0  23706-3 0  9999,2 53745  53.2161 178.6511 0001376  66.8033 293.3104 15.08839400 15877,6917.882,95.438,540.6990000000002,538.795,0.0
53745.0,STARLINK-4656,PAYLOAD,2022-12-11 22:14:42,15.08840325,0.0001381,53.2161,178.3538,66.7763,293.3374,0.00024765,3.656e-05,0.0,0 STARLINK-4656,1 53745U 22107AX  22345.92687571  .00003656  00000-0  24765-3 0  9994,2 53745  53.2161 178.3538 0001381  66.7763 293.3374 15.08840325 15101,6917.879,95.438,540.7,538.789,0.0
